    CJ95O010  1997 03 29.7429  0.902663  0.994950  130.5185  283.2610   89.0370  20210321  -2.0  4.0  C/1995 O1 (Hale-Bopp)                                    MPC106342
    PJ96R020  2019 02 11.7322  2.589156  0.314133  333.3161   40.0261    2.6004  20210321  11.5  4.0  P/1996 R2 (Lagerkvist)                                   NK   1615
    PJ97B010  2022 03 28.7793  2.055737  0.760167  183.3472  328.8823   12.3395  20210321  15.0  2.0  P/1997 B1 (Kobayashi)                                    MPC 30063
    PJ98V24S  2018 01 18.0479  3.432242  0.242139  244.6446  159.0332    5.0257  20210321  13.0  2.0  P/1998 VS24 (LINEAR)                                     MPC 75703
    PJ99R28O  2019 06 26.1775  1.123448  0.672151  231.2651  137.8849    7.5671  20210321  20.0  2.0  P/1999 RO28 (LONEOS)                                     NK    731
    PJ99XC0N  2017 06 10.1581  3.300331  0.210263  161.8635  285.2963    5.0296  20210321  13.5  2.0  P/1999 XN120 (Catalina)                                  MPC 75704
    PK00R020  2019 06 17.4695  1.623673  0.531597  176.5289  160.2902   11.6854  20210321  18.0  4.0  P/2000 R2 (LINEAR)                                       NK    744
    PK01H050  2015 10 18.7738  2.448196  0.598524  224.8600  328.6834    8.3669  20210321  12.0  4.0  P/2001 H5 (NEAT)                                         MPC 43019
    PK01Q060  2024 02 28.9282  1.408400  0.822894   42.9361   22.1449   56.9061  20210321  13.5  4.0  P/2001 Q6 (NEAT)                                         MPC 75704
    PK02E57J  2018 06 18.2213  2.636857  0.592565  167.3657  330.3266    4.9762  20210321  12.5  4.0  P/2002 EJ57 (LINEAR)                                     MPC 47727
    PK02T060  2024 07 22.8976  3.375070  0.560386  219.6404  206.3515   10.8348  20210321  10.5  4.0  P/2002 T6 (NEAT-LINEAR)                                  MPC109588
    CK02V94Q  2006 01 27.3038  6.832312  0.963157  100.1452   35.0350   70.5895  20210321   9.5  2.0  C/2002 VQ94 (LINEAR)                                     MPC 75007
    PK03F020  2019 11 12.5174  2.972682  0.542326  192.0098  359.0528   11.6049  20210321  16.5  2.0  P/2003 F2 (NEAT)                                         MPC 50354
    PK03Q29X  2025 08  5.1321  4.231708  0.473003   37.4519  264.5783   11.3899  20210321   8.5  4.0  P/2003 QX29 (NEAT)                                       MPC 50139
    PK03T120  2020 05  6.8753  0.595579  0.769696  219.7624  174.5745   11.0182  20210321  17.0  4.0  P/2003 T12 (SOHO)                                        MPC105235
    PK04A010  2027 01 22.1386  5.496842  0.309318   21.3555  124.8467   10.5516  20210321   6.5  4.0  P/2004 A1 (LONEOS)                                       MPC 82312
    PK04D29O  2024 06  4.6567  4.070276  0.441216   40.6972  147.3750   14.5321  20210321  13.5  2.0  P/2004 DO29 (Spacewatch-LINEAR)                          MPC 54558
    PK04FE0Y  2026 05 31.9460  4.076938  0.168409  242.4316  326.7608    2.1348  20210321  12.5  2.0  P/2004 FY140 (LINEAR)                                    MPC 54823
    PK04R030  2021 09 24.9169  3.545680  0.260955   38.2451  305.4797   12.8184  20210321  14.5  4.0  P/2004 R3 (LINEAR-NEAT)                                  MPC 53304
    PK04V030  2023 11 22.0608  3.954350  0.446345  322.3285  356.1204   50.4376  20210321  11.5  4.0  P/2004 V3 (Siding Spring)                                MPC 55521
    PK04V050  2027 08 19.0206  4.439370  0.443549   87.7389   47.7782   19.3433  20210321   8.0  4.0  P/2004 V5 (LINEAR-Hill)                                  MPC 75705
    PK05E010  2023 09 29.7765  4.398429  0.375141  194.0884  335.5687    4.2637  20210321  10.0  4.0  P/2005 E1 (Tubbiolo)                                     MPC 54164
    PK05G08F  2019 09 28.8119  2.819562  0.517750  284.8948  314.8171    1.1923  20210321  11.5  4.0  P/2005 GF8 (LONEOS)                                      MPC 54823
    PK05J010  2018 10 12.6066  1.536115  0.569736  338.9616  268.8078   31.7639  20210321  16.5  4.0  P/2005 J1 (McNaught)                                     MPC 79019
    PK05L010  2021 11  2.6982  3.142745  0.209440  149.7164  138.2481    7.7385  20210321   9.5  4.0  P/2005 L1 (McNaught)                                     MPC 74246
    PK05S020  2029 01 16.8685  6.435338  0.197190  229.1528  161.2040    3.1357  20210321   7.5  4.0  P/2005 S2 (Skiff)                                        MPC 75706
    PK05SL6B  2026 01 19.1006  3.824835  0.463533   83.3749    1.2110   24.0797  20210321  12.0  2.0  P/2005 SB216 (LONEOS)                                    MPC 75706
    PK05T020  2020 04  8.3930  2.244703  0.416392   58.8234  260.1586    8.2925  20210321  14.5  4.0  P/2005 T2 (Christensen)                                  MPC 55717
    PK05T030  2026 08 20.6264  6.259877  0.174214    6.8965   27.7264    6.2241  20210321   9.0  4.0  P/2005 T3 (Read)                                         MPC 73461
    PK05T040  2034 05 21.8841  0.656946  0.929822   41.6236   25.7193  160.1993  20210321  15.0  4.0  P/2005 T4 (SWAN)                                         MPC 73461
    PK05T050  2025 06 14.4250  3.264753  0.552188  304.5473   57.0041   21.3572  20210321  11.0  4.0  P/2005 T5 (Broughton)                                    MPC 75706
    PK05W030  2021 09 20.8375  2.890138  0.543396  200.7132  210.0859   16.4197  20210321  12.0  4.0  P/2005 W3 (Kowalski)                                     MPC 56954
    PK05Y020  2020 10 20.2104  3.380153  0.470817  193.9618   94.4714   19.0742  20210321   9.0  4.0  P/2005 Y2 (McNaught)                                     MPC 75706
    PK06F040  2019 08  2.5074  2.326918  0.339738   31.0585  183.8449   12.4140  20210321  15.0  4.0  P/2006 F4 (Spacewatch)                                   MPC 56954
    PK06H30R  2028 10 12.1660  1.232804  0.842176  117.2883  309.9034   31.8295  20210321  11.0  4.0  P/2006 HR30 (Siding Spring)                              MPC 75707
    PK06S040  2022 01 14.6270  3.105201  0.508215  305.1455   36.0874   39.5327  20210321  11.0  4.0  P/2006 S4 (Christensen)                                  MPC 75707
    PK07A020  2022 11 29.3027  2.798484  0.557669  186.7426  300.9068   26.4877  20210321  13.5  4.0  P/2007 A2 (Christensen)                                  MPC 75707
    PK07C020  2026 03 26.9306  3.702388  0.470533  179.9800  275.5645    8.6455  20210321  10.0  4.0  P/2007 C2 (Catalina)                                     MPC 75707
    CK07D010  2007 06  8.9462  8.825748  0.993978  340.0547  171.1966   41.5017  20210321   3.5  4.0  C/2007 D1 (LINEAR)                                       MPC 84315
    PK07K020  2026 12 31.5038  2.301430  0.683188  347.4523  188.6443    7.6339  20210321  14.0  4.0  P/2007 K2 (Gibbs)                                        MPC 82314
    PK07Q020  2020 11 26.9688  1.864665  0.670141  162.7750  172.1601   10.2027  20210321  16.0  4.0  P/2007 Q2 (Gilmore)                                      MPC 60925
    PK07R040  2021 12  8.7777  1.956816  0.670147  282.6141   87.2196   20.2188  20210321  14.5  4.0  P/2007 R4 (Garradd)                                      MPC 75708
    PK07S010  2022 10  8.3703  2.519246  0.339582  245.6692  141.3742    5.9636  20210321  13.0  4.0  P/2007 S1 (Zhao)                                         MPC 73462
    PK07T020  2018 07 23.8470  0.654087  0.785336  359.6372    3.3745    9.7472  20210321  18.5  4.0  P/2007 T2 (Kowalski)                                     MPC 61994
    PK08C94L  2021 09 21.0320  5.420152  0.120379   80.4625   33.3252    8.3468  20210321   8.0  4.0  P/2008 CL94 (Lemmon)                                     MPC 75708
    PK08L020  2023 05 11.1573  2.332242  0.613135  141.2184  218.0071   25.8600  20210321  12.5  4.0  P/2008 L2 (Hill)                                         MPC 75709
    PK08O030  2031 12 20.8792  2.505183  0.695309  341.0941   47.5913   32.2627  20210321  13.0  4.0  P/2008 O3 (Boattini)                                     MPC 64114
    PK08Q20P  2022 01  2.1285  1.805384  0.491995   75.5600  322.0727    7.5227  20210321  15.5  4.0  P/2008 QP20 (LINEAR-Hill)                                MPC 75709
    PK08W96Z  2021 08 26.7444  1.848781  0.470045  341.9085   56.4547    7.1113  20210321  13.5  4.0  P/2008 WZ96 (LINEAR)                                     MPC 66204
    PK08Y030  2031 10 21.8648  4.462053  0.445469  238.2326  262.7971   38.7650  20210321   8.5  4.0  P/2008 Y3 (McNaught)                                     MPC 75710
    PK09B010  2026 07  2.8178  2.460461  0.634761  128.8835  297.0909   22.2196  20210321  13.0  4.0  P/2009 B1 (Boattini)                                     MPC 75710
    CK09G010  2009 04 15.5979  1.136020  0.997377  175.4091  120.4360  108.7416  20210321   9.0  4.0  C/2009 G1 (STEREO)                                       MPC 66466
    PK09O030  2031 01 17.2618  2.426611  0.687685  154.4070  183.7075   16.2702  20210321  12.5  4.0  P/2009 O3 (Hill)                                         MPC 75710
    PK09Q010  2022 05 22.8892  2.788561  0.494805  157.1451  173.9606   14.5029  20210321  11.5  4.0  P/2009 Q1 (Hill)                                         MPEC 2021-F20
    PK09Q050  2029 12 15.6217  2.908481  0.608909  209.0233  160.2703   40.9805  20210321  10.0  4.0  P/2009 Q5 (McNaught)                                     MPC 68902
    PK09T020  2031 06 15.5648  1.813186  0.765244  216.3990  215.8085   27.5567  20210321  14.0  4.0  P/2009 T2 (La Sagra)                                     MPC112389
    PK09U040  2021 02  1.0919  1.646555  0.676078  259.8371   55.3509   10.0805  20210321  14.0  4.0  P/2009 U4 (McNaught)                                     MPC 75711
    PK09W51X  2020 11 16.3628  0.800054  0.740291  118.0771   31.6821    9.5953  20210321  19.0  2.0  P/2009 WX51 (Catalina)                                   MPC105235
    PK09Y020  2026 12  4.6763  2.384351  0.635956  172.1555  262.0247   29.9315  20210321  13.0  4.0  P/2009 Y2 (Kowalski)                                     MPC 74247
